{"type": "FeatureCollection", "features": [ {"type": "Feature", "properties": {"norad_id": 58654, "name": "BEIDOU-3 M28 (C50)", "group": "beidou", "lat": 53.38553734220427, "lon": -178.46866335694375, "alt_km": 21528.27585260048, "timestamp": "2025-12-10T23:33:13.084160+00:00", "meta": {"OBJECT_NAME": "BEIDOU-3 M28 (C50)", "OBJECT_ID": "2023-207A", "EPOCH": "2025-12-10T06:57:54.812736", "MEAN_MOTION": 1.86229669, "ECCENTRICITY": 0.00023361, "INCLINATION": 55.5824, "RA_OF_ASC_NODE": 68.6843, "ARG_OF_PERICENTER": 269.0776, "MEAN_ANOMALY": 90.9179, "EPHEMERIS_TYPE": 0, "CLASSIFICATION_TYPE": "U", "NORAD_CAT_ID": 58654, "ELEMENT_SET_NO": 999, "REV_AT_EPOCH": 1332, "BSTAR": 0, "MEAN_MOTION_DOT": -5.6e-07, "MEAN_MOTION_DDOT": 0}, "tle": {"line1": "1 58654U 23207A   25344.29021774 -.00000056  00000+0  00000+0 0  9992", "line2": "2 58654  55.5824  68.6843 0002336 269.0776  90.9179  1.86229669 13328"}}, "geometry": {"type": "Point", "coordinates": [-178.46866335694375, 53.38553734220427]}}, {"type": "Feature", "properties": {"norad_id": 58655, "name": "BEIDOU-3 M26 (C48)", "group": "beidou", "lat": -45.04389829340457, "lon": -68.05568371488992, "alt_km": 21523.278062217436, "timestamp": "2025-12-10T23:33:13.084170+00:00", "meta": {"OBJECT_NAME": "BEIDOU-3 M26 (C48)", "OBJECT_ID": "2023-207B", "EPOCH": "2025-12-09T13:13:20.106624", "MEAN_MOTION": 1.86231165, "ECCENTRICITY": 0.00037, "INCLINATION": 55.5839, "RA_OF_ASC_NODE": 68.6957, "ARG_OF_PERICENTER": 254.5617, "MEAN_ANOMALY": 105.42, "EPHEMERIS_TYPE": 0, "CLASSIFICATION_TYPE": "U", "NORAD_CAT_ID": 58655, "ELEMENT_SET_NO": 999, "REV_AT_EPOCH": 1329, "BSTAR": 0, "MEAN_MOTION_DOT": -5.1e-07, "MEAN_MOTION_DDOT": 0}, "tle": {"line1": "1 58655U 23207B   25343.55092716 -.00000051  00000+0  00000+0 0  9990", "line2": "2 58655  55.5839  68.6957 0003700 254.5617 105.4200  1.86231165 13297"}}, "geometry": {"type": "Point", "coordinates": [-68.05568371488992, -45.04389829340457]}}, {"type": "Feature", "properties": {"norad_id": 61186, "name": "BEIDOU-3 M25 (C47)", "group": "beidou", "lat": -3.251264494536776, "lon": -53.54725829036512, "alt_km": 21521.207335467105, "timestamp": "2025-12-10T23:33:13.084180+00:00", "meta": {"OBJECT_NAME": "BEIDOU-3 M25 (C47)", "OBJECT_ID": "2024-168B", "EPOCH": "2025-12-09T12:38:32.089056", "MEAN_MOTION": 1.86229941, "ECCENTRICITY": 0.0005432, "INCLINATION": 54.6447, "RA_OF_ASC_NODE": 308.8306, "ARG_OF_PERICENTER": 296.174, "MEAN_ANOMALY": 164.5169, "EPHEMERIS_TYPE": 0, "CLASSIFICATION_TYPE": "U", "NORAD_CAT_ID": 61186, "ELEMENT_SET_NO": 999, "REV_AT_EPOCH": 825, "BSTAR": 0, "MEAN_MOTION_DOT": -7.8e-07, "MEAN_MOTION_DDOT": 0}, "tle": {"line1": "1 61186U 24168B   25343.52676029 -.00000078  00000+0  00000+0 0  9991", "line2": "2 61186  54.6447 308.8306 0005432 296.1740 164.5169  1.86229941  8254"}}, "geometry": {"type": "Point", "coordinates": [-53.54725829036512, -3.251264494536776]}}, {"type": "Feature", "properties": {"norad_id": 61187, "name": "BEIDOU-3 M27 (C49)", "group": "beidou", "lat": 38.01932672237368, "lon": 95.04858058965229, "alt_km": 21529.492314188952, "timestamp": "2025-12-10T23:33:13.084190+00:00", "meta": {"OBJECT_NAME": "BEIDOU-3 M27 (C49)", "OBJECT_ID": "2024-168C", "EPOCH": "2025-12-10T08:23:50.553888", "MEAN_MOTION": 1.86230151, "ECCENTRICITY": 0.00023508, "INCLINATION": 54.6394, "RA_OF_ASC_NODE": 308.7857, "ARG_OF_PERICENTER": 335.0567, "MEAN_ANOMALY": 92.4403, "EPHEMERIS_TYPE": 0, "CLASSIFICATION_TYPE": "U", "NORAD_CAT_ID": 61187, "ELEMENT_SET_NO": 999, "REV_AT_EPOCH": 574, "BSTAR": 0, "MEAN_MOTION_DOT": -8.2e-07, "MEAN_MOTION_DDOT": 0}, "tle": {"line1": "1 61187U 24168C   25344.34989067 -.00000082  00000+0  00000+0 0  9997", "line2": "2 61187  54.6394 308.7857 0002350 335.0567  92.4403  1.86230151  5748"}}, "geometry": {"type": "Point", "coordinates": [95.04858058965229, 38.01932672237368]}}]}